start=new Date('2023-04-08T00:00:00.000Z').valueOf();
sats=[{"BSTAR":"0.00000118410000","ARG_OF_PERICENTER":"93.8092","TLE_LINE2":"2 53162  53.2139 275.1362 0001321  93.8092 266.3051 15.08838261 40241","OBJECT_TYPE":"PAYLOAD","TIME_SYSTEM":"UTC","ELEMENT_SET_NO":"999","TLE_LINE1":"1 53162U 22083AG  23097.45235419 -.00000269  00000-0  11841-5 0  9994","EPHEMERIS_TYPE":"0","REV_AT_EPOCH":"4024","MEAN_MOTION":"15.08838261","REF_FRAME":"TEME","PERIOD":"95.438","EPOCH":"2023-04-07T10:51:23.402016","NORAD_CAT_ID":"53162","APOAPSIS":"540.665","MEAN_MOTION_DDOT":"0.0000000000000","MEAN_MOTION_DOT":"-0.00000269","FILE":"3882626","GP_ID":"229684385","CENTER_NAME":"EARTH","MEAN_ANOMALY":"266.3051","PERIAPSIS":"538.837","INCLINATION":"53.2139","OBJECT_ID":"2022-083AG","SEMIMAJOR_AXIS":"6917.886","LAUNCH_DATE":"2022-07-17","COUNTRY_CODE":"US","RCS_SIZE":"LARGE","DECAY_DATE":null,"SITE":"AFETR","ECCENTRICITY":"0.00013210","MEAN_ELEMENT_THEORY":"SGP4","OBJECT_NAME":"STARLINK-4114","RA_OF_ASC_NODE":"275.1362","CLASSIFICATION_TYPE":"U"},{"GP_ID":"229684634","CENTER_NAME":"EARTH","PERIAPSIS":"539.295","MEAN_ANOMALY":"11.6379","INCLINATION":"53.2160","EPOCH":"2023-04-07T11:56:20.721120","NORAD_CAT_ID":"53163","MEAN_MOTION_DDOT":"0.0000000000000","APOAPSIS":"540.159","FILE":"3882626","MEAN_MOTION_DOT":"0.00002569","MEAN_ELEMENT_THEORY":"SGP4","OBJECT_NAME":"STARLINK-4104","CLASSIFICATION_TYPE":"U","RA_OF_ASC_NODE":"274.9314","SEMIMAJOR_AXIS":"6917.862","OBJECT_ID":"2022-083AH","COUNTRY_CODE":"US","LAUNCH_DATE":"2022-07-17","RCS_SIZE":"LARGE","ECCENTRICITY":"0.00006250","DECAY_DATE":null,"SITE":"AFETR","BSTAR":"0.00017941000000","TLE_LINE2":"2 53163  53.2160 274.9314 0000625 348.4599  11.6379 15.08845998 40257","ARG_OF_PERICENTER":"348.4599","REV_AT_EPOCH":"4025","TLE_LINE1":"1 53163U 22083AH  23097.49746205  .00002569  00000-0  17941-3 0  9998","ELEMENT_SET_NO":"999","EPHEMERIS_TYPE":"0","PERIOD":"95.437","MEAN_MOTION":"15.08845998","REF_FRAME":"TEME","OBJECT_TYPE":"PAYLOAD","TIME_SYSTEM":"UTC"},{"CENTER_NAME":"EARTH","GP_ID":"229689829","PERIAPSIS":"539.071","INCLINATION":"53.2133","MEAN_ANOMALY":"272.1227","EPOCH":"2023-04-07T18:32:25.060128","NORAD_CAT_ID":"53164","APOAPSIS":"540.402","MEAN_MOTION_DDOT":"0.0000000000000","MEAN_MOTION_DOT":"0.00001821","FILE":"3882703","MEAN_ELEMENT_THEORY":"SGP4","OBJECT_NAME":"STARLINK-4116","RA_OF_ASC_NODE":"273.6993","CLASSIFICATION_TYPE":"U","OBJECT_ID":"2022-083AJ","SEMIMAJOR_AXIS":"6917.872","LAUNCH_DATE":"2022-07-17","COUNTRY_CODE":"US","RCS_SIZE":"LARGE","ECCENTRICITY":"0.00009620","DECAY_DATE":null,"SITE":"AFETR","BSTAR":"0.00013244000000","ARG_OF_PERICENTER":"87.9875","TLE_LINE2":"2 53164  53.2133 273.6993 0000962  87.9875 272.1227 15.08842839 40924","ELEMENT_SET_NO":"999","TLE_LINE1":"1 53164U 22083AJ  23097.77251227  .00001821  00000-0  13244-3 0  9997","EPHEMERIS_TYPE":"0","REV_AT_EPOCH":"4092","REF_FRAME":"TEME","MEAN_MOTION":"15.08842839","PERIOD":"95.437","OBJECT_TYPE":"PAYLOAD","TIME_SYSTEM":"UTC"},{"TLE_LINE1":"1 53165U 22083AK  23097.49283452  .00002652  00000-0  18465-3 0  9995","ELEMENT_SET_NO":"999","EPHEMERIS_TYPE":"0","REV_AT_EPOCH":"4025","MEAN_MOTION":"15.08842240","REF_FRAME":"TEME","PERIOD":"95.437","OBJECT_TYPE":"PAYLOAD","TIME_SYSTEM":"UTC","BSTAR":"0.00018465000000","ARG_OF_PERICENTER":"66.7523","TLE_LINE2":"2 53165  53.2142 274.9524 0001218  66.7523 293.3598 15.08842240 40257","MEAN_ELEMENT_THEORY":"SGP4","OBJECT_NAME":"STARLINK-4090","RA_OF_ASC_NODE":"274.9524","CLASSIFICATION_TYPE":"U","OBJECT_ID":"2022-083AK","SEMIMAJOR_AXIS":"6917.874","LAUNCH_DATE":"2022-07-17","COUNTRY_CODE":"US","RCS_SIZE":"LARGE","SITE":"AFETR","DECAY_DATE":null,"ECCENTRICITY":"0.00012180","CENTER_NAME":"EARTH","GP_ID":"229685632","INCLINATION":"53.2142","PERIAPSIS":"538.896","MEAN_ANOMALY":"293.3598","EPOCH":"2023-04-07T11:49:40.902528","NORAD_CAT_ID":"53165","APOAPSIS":"540.581","MEAN_MOTION_DDOT":"0.0000000000000","MEAN_MOTION_DOT":"0.00002652","FILE":"3882626"},{"BSTAR":"0.00010054000000","TLE_LINE2":"2 53166  53.2133 273.7269 0000703  77.6915 282.4156 15.08845784 40924","ARG_OF_PERICENTER":"77.6915","OBJECT_TYPE":"PAYLOAD","TIME_SYSTEM":"UTC","REV_AT_EPOCH":"4092","TLE_LINE1":"1 53166U 22083AL  23097.76514881  .00001313  00000-0  10054-3 0  9998","EPHEMERIS_TYPE":"0","ELEMENT_SET_NO":"999","PERIOD":"95.437","REF_FRAME":"TEME","MEAN_MOTION":"15.08845784","EPOCH":"2023-04-07T18:21:48.857184","NORAD_CAT_ID":"53166","MEAN_MOTION_DDOT":"0.0000000000000","APOAPSIS":"540.214","FILE":"3882704","MEAN_MOTION_DOT":"0.00001313","GP_ID":"229689346","CENTER_NAME":"EARTH","INCLINATION":"53.2133","PERIAPSIS":"539.241","MEAN_ANOMALY":"282.4156","SEMIMAJOR_AXIS":"6917.863","OBJECT_ID":"2022-083AL","COUNTRY_CODE":"US","LAUNCH_DATE":"2022-07-17","RCS_SIZE":"LARGE","SITE":"AFETR","DECAY_DATE":null,"ECCENTRICITY":"0.00007030","MEAN_ELEMENT_THEORY":"SGP4","OBJECT_NAME":"STARLINK-4110","CLASSIFICATION_TYPE":"U","RA_OF_ASC_NODE":"273.7269"},{"BSTAR":"0.00012727000000","ARG_OF_PERICENTER":"78.2606","TLE_LINE2":"2 53167  53.2165 258.9719 0001569  78.2606 281.8562 15.08849010 41123","TLE_LINE1":"1 53167U 22083AM  23097.70948903  .00001739  00000-0  12727-3 0  9990","ELEMENT_SET_NO":"999","EPHEMERIS_TYPE":"0","REV_AT_EPOCH":"4112","MEAN_MOTION":"15.08849010","REF_FRAME":"TEME","PERIOD":"95.437","OBJECT_TYPE":"PAYLOAD","TIME_SYSTEM":"UTC","CENTER_NAME":"EARTH","GP_ID":"229689851","MEAN_ANOMALY":"281.8562","PERIAPSIS":"538.632","INCLINATION":"53.2165","EPOCH":"2023-04-07T17:01:39.852192","NORAD_CAT_ID":"53167","APOAPSIS":"540.803","MEAN_MOTION_DDOT":"0.0000000000000","MEAN_MOTION_DOT":"0.00001739","FILE":"3882704","MEAN_ELEMENT_THEORY":"SGP4","OBJECT_NAME":"STARLINK-3683","RA_OF_ASC_NODE":"258.9719","CLASSIFICATION_TYPE":"U","OBJECT_ID":"2022-083AM","SEMIMAJOR_AXIS":"6917.853","LAUNCH_DATE":"2022-07-17","COUNTRY_CODE":"US","RCS_SIZE":"LARGE","DECAY_DATE":null,"SITE":"AFETR","ECCENTRICITY":"0.00015690"},{"TLE_LINE2":"2 53168  53.2154 274.9371 0001278  78.4414 281.6721 15.08842215 40258","ARG_OF_PERICENTER":"78.4414","BSTAR":"0.00004331700000","PERIOD":"95.437","REF_FRAME":"TEME","MEAN_MOTION":"15.08842215","REV_AT_EPOCH":"4025","EPHEMERIS_TYPE":"0","TLE_LINE1":"1 53168U 22083AN  23097.49651244  .00000402  00000-0  43317-4 0  9992","ELEMENT_SET_NO":"999","TIME_SYSTEM":"UTC","OBJECT_TYPE":"PAYLOAD","INCLINATION":"53.2154","PERIAPSIS":"538.855","MEAN_ANOMALY":"281.6721","GP_ID":"229685386","CENTER_NAME":"EARTH","FILE":"3882626","MEAN_MOTION_DOT":"0.00000402","MEAN_MOTION_DDOT":"0.0000000000000","APOAPSIS":"540.623","NORAD_CAT_ID":"53168","EPOCH":"2023-04-07T11:54:58.674816","CLASSIFICATION_TYPE":"U","RA_OF_ASC_NODE":"274.9371","OBJECT_NAME":"STARLINK-4105","MEAN_ELEMENT_THEORY":"SGP4","ECCENTRICITY":"0.00012780","DECAY_DATE":null,"SITE":"AFETR","RCS_SIZE":"LARGE","COUNTRY_CODE":"US","LAUNCH_DATE":"2022-07-17","SEMIMAJOR_AXIS":"6917.874","OBJECT_ID":"2022-083AN"},{"MEAN_ELEMENT_THEORY":"SGP4","OBJECT_NAME":"STARLINK-4117","CLASSIFICATION_TYPE":"U","RA_OF_ASC_NODE":"260.0836","SEMIMAJOR_AXIS":"6917.855","OBJECT_ID":"2022-083AP","COUNTRY_CODE":"US","LAUNCH_DATE":"2022-07-17","RCS_SIZE":"LARGE","DECAY_DATE":null,"SITE":"AFETR","ECCENTRICITY":"0.00013350","CENTER_NAME":"EARTH","GP_ID":"229685132","INCLINATION":"53.2155","PERIAPSIS":"538.796","MEAN_ANOMALY":"283.4374","EPOCH":"2023-04-07T11:08:00.188448","NORAD_CAT_ID":"53169","MEAN_MOTION_DDOT":"0.0000000000000","APOAPSIS":"540.643","FILE":"3882626","MEAN_MOTION_DOT":"-0.00002537","REV_AT_EPOCH":"4044","EPHEMERIS_TYPE":"0","TLE_LINE1":"1 53169U 22083AP  23097.46389107 -.00002537  00000-0 -14136-3 0  9995","ELEMENT_SET_NO":"999","PERIOD":"95.437","MEAN_MOTION":"15.08848399","REF_FRAME":"TEME","OBJECT_TYPE":"PAYLOAD","TIME_SYSTEM":"UTC","BSTAR":"-0.00014136000000","TLE_LINE2":"2 53169  53.2155 260.0836 0001335  76.6767 283.4374 15.08848399 40441","ARG_OF_PERICENTER":"76.6767"},{"BSTAR":"0.00004889900000","ARG_OF_PERICENTER":"96.6189","TLE_LINE2":"2 53170  53.2176 272.7371 0001318  96.6189 263.4953 15.08840077 40852","OBJECT_TYPE":"PAYLOAD","TIME_SYSTEM":"UTC","ELEMENT_SET_NO":"999","TLE_LINE1":"1 53170U 22083AQ  23096.86216719  .00000490  00000-0  48899-4 0  9996","EPHEMERIS_TYPE":"0","REV_AT_EPOCH":"4085","REF_FRAME":"TEME","MEAN_MOTION":"15.08840077","PERIOD":"95.438","EPOCH":"2023-04-06T20:41:31.245216","NORAD_CAT_ID":"53170","APOAPSIS":"540.657","MEAN_MOTION_DDOT":"0.0000000000000","MEAN_MOTION_DOT":"0.00000490","FILE":"3882159","GP_ID":"229650138","CENTER_NAME":"EARTH","PERIAPSIS":"538.833","MEAN_ANOMALY":"263.4953","INCLINATION":"53.2176","OBJECT_ID":"2022-083AQ","SEMIMAJOR_AXIS":"6917.880","LAUNCH_DATE":"2022-07-17","COUNTRY_CODE":"US","RCS_SIZE":"LARGE","DECAY_DATE":null,"ECCENTRICITY":"0.00013180","SITE":"AFETR","MEAN_ELEMENT_THEORY":"SGP4","OBJECT_NAME":"STARLINK-4095","RA_OF_ASC_NODE":"272.7371","CLASSIFICATION_TYPE":"U"},{"EPOCH":"2023-04-07T10:23:31.567200","NORAD_CAT_ID":"53171","MEAN_MOTION_DDOT":"0.0000000000000","APOAPSIS":"540.466","FILE":"3882626","MEAN_MOTION_DOT":"0.00001756","GP_ID":"229684635","CENTER_NAME":"EARTH","PERIAPSIS":"539.029","INCLINATION":"53.2166","MEAN_ANOMALY":"275.8909","SEMIMAJOR_AXIS":"6917.883","OBJECT_ID":"2022-083AR","COUNTRY_CODE":"US","LAUNCH_DATE":"2022-07-17","RCS_SIZE":"LARGE","SITE":"AFETR","DECAY_DATE":null,"ECCENTRICITY":"0.00010380","MEAN_ELEMENT_THEORY":"SGP4","OBJECT_NAME":"STARLINK-4052","CLASSIFICATION_TYPE":"U","RA_OF_ASC_NODE":"244.9811","BSTAR":"0.00012839000000","TLE_LINE2":"2 53171  53.2166 244.9811 0001038  84.2201 275.8909 15.08839291 40651","ARG_OF_PERICENTER":"84.2201","OBJECT_TYPE":"PAYLOAD","TIME_SYSTEM":"UTC","REV_AT_EPOCH":"4065","ELEMENT_SET_NO":"999","TLE_LINE1":"1 53171U 22083AR  23097.43300425  .00001756  00000-0  12839-3 0  9999","EPHEMERIS_TYPE":"0","PERIOD":"95.438","REF_FRAME":"TEME","MEAN_MOTION":"15.08839291"}];
